{
  "type": "FeatureCollection",
  "features": [
    {
      "type": "Feature",
      "properties": {
        "norad_id": 34540,
        "name": "IRIDIUM 33 DEB",
        "group": "iridium-33-debris",
        "lat": 5.871110954024529,
        "lon": -56.22295381839604,
        "alt_km": 652.4939140469814,
        "timestamp": "2025-12-21T22:41:41.844495+00:00",
        "meta_object_name": "IRIDIUM 33 DEB",
        "meta_object_id": "1997-051JH",
        "meta_epoch": "2025-12-21T03:12:48.465792",
        "meta_mean_motion": 14.7547443,
        "meta_eccentricity": 0.00177108,
        "meta_inclination": 86.311,
        "meta_ra_of_asc_node": 303.768,
        "meta_arg_of_pericenter": 130.8204,
        "meta_mean_anomaly": 246.4988,
        "meta_ephemeris_type": 0,
        "meta_classification_type": "U",
        "meta_norad_cat_id": 34540,
        "meta_element_set_no": 999,
        "meta_rev_at_epoch": 89145,
        "meta_bstar": 0.0010237596,
        "meta_mean_motion_dot": 7.004e-05,
        "meta_mean_motion_ddot": 0,
        "tle_line1": "1 34540U 97051JH  25355.13389428  .00007004  00000+0  10238-2 0  9992",
        "tle_line2": "2 34540  86.3110 303.7680 0017710 130.8204 246.4988 14.75474430891455"
      },
      "geometry": {
        "type": "Point",
        "coordinates": [
          -56.22295381839604,
          5.871110954024529
        ]
      }
    },
    {
      "type": "Feature",
      "properties": {
        "norad_id": 34648,
        "name": "IRIDIUM 33 DEB",
        "group": "iridium-33-debris",
        "lat": -20.42382773701479,
        "lon": 99.57555679713647,
        "alt_km": 811.4413402190667,
        "timestamp": "2025-12-21T22:41:41.844505+00:00",
        "meta_object_name": "IRIDIUM 33 DEB",
        "meta_object_id": "1997-051JZ",
        "meta_epoch": "2025-12-21T01:19:00.379200",
        "meta_mean_motion": 14.11717804,
        "meta_eccentricity": 0.01800717,
        "meta_inclination": 86.3908,
        "meta_ra_of_asc_node": 278.5885,
        "meta_arg_of_pericenter": 272.8374,
        "meta_mean_anomaly": 85.2213,
        "meta_ephemeris_type": 0,
        "meta_classification_type": "U",
        "meta_norad_cat_id": 34648,
        "meta_element_set_no": 999,
        "meta_rev_at_epoch": 85078,
        "meta_bstar": 0.0043851239,
        "meta_mean_motion_dot": 9.319e-05,
        "meta_mean_motion_ddot": 0,
        "tle_line1": "1 34648U 97051JZ  25355.05486550  .00009319  00000+0  43851-2 0  9994",
        "tle_line2": "2 34648  86.3908 278.5885 0180071 272.8374  85.2213 14.11717804850787"
      },
      "geometry": {
        "type": "Point",
        "coordinates": [
          99.57555679713647,
          -20.42382773701479
        ]
      }
    },
    {
      "type": "Feature",
      "properties": {
        "norad_id": 34651,
        "name": "IRIDIUM 33 DEB",
        "group": "iridium-33-debris",
        "lat": 11.216419747431583,
        "lon": 137.3995883805018,
        "alt_km": 904.5691628170998,
        "timestamp": "2025-12-21T22:41:41.844515+00:00",
        "meta_object_name": "IRIDIUM 33 DEB",
        "meta_object_id": "1997-051KC",
        "meta_epoch": "2025-12-19T16:44:48.420096",
        "meta_mean_motion": 14.25922062,
        "meta_eccentricity": 0.01422464,
        "meta_inclination": 86.2827,
        "meta_ra_of_asc_node": 137.6175,
        "meta_arg_of_pericenter": 181.9677,
        "meta_mean_anomaly": 178.0974,
        "meta_ephemeris_type": 0,
        "meta_classification_type": "U",
        "meta_norad_cat_id": 34651,
        "meta_element_set_no": 999,
        "meta_rev_at_epoch": 85995,
        "meta_bstar": 0.0022061693,
        "meta_mean_motion_dot": 5.865e-05,
        "meta_mean_motion_ddot": 0,
        "tle_line1": "1 34651U 97051KC  25353.69778264  .00005865  00000+0  22062-2 0  9995",
        "tle_line2": "2 34651  86.2827 137.6175 0142246 181.9677 178.0974 14.25922062859957"
      },
      "geometry": {
        "type": "Point",
        "coordinates": [
          137.3995883805018,
          11.216419747431583
        ]
      }
    },
    {
      "type": "Feature",
      "properties": {
        "norad_id": 34652,
        "name": "IRIDIUM 33 DEB",
        "group": "iridium-33-debris",
        "lat": -0.9997754988692767,
        "lon": 155.96607914810724,
        "alt_km": 687.5305831209489,
        "timestamp": "2025-12-21T22:41:41.844525+00:00",
        "meta_object_name": "IRIDIUM 33 DEB",
        "meta_object_id": "1997-051KD",
        "meta_epoch": "2025-12-21T05:29:24.538272",
        "meta_mean_motion": 14.62128423,
        "meta_eccentricity": 0.0025487,
        "meta_inclination": 86.3314,
        "meta_ra_of_asc_node": 336.221,
        "meta_arg_of_pericenter": 267.1492,
        "meta_mean_anomaly": 103.1146,
        "meta_ephemeris_type": 0,
        "meta_classification_type": "U",
        "meta_norad_cat_id": 34652,
        "meta_element_set_no": 999,
        "meta_rev_at_epoch": 88608,
        "meta_bstar": 0.00068722,
        "meta_mean_motion_dot": 3.491e-05,
        "meta_mean_motion_ddot": 0,
        "tle_line1": "1 34652U 97051KD  25355.22875623  .00003491  00000+0  68722-3 0  9991",
        "tle_line2": "2 34652  86.3314 336.2210 0025487 267.1492 103.1146 14.62128423886080"
      },
      "geometry": {
        "type": "Point",
        "coordinates": [
          155.96607914810724,
          -0.9997754988692767
        ]
      }
    },
    {
      "type": "Feature",
      "properties": {
        "norad_id": 34690,
        "name": "IRIDIUM 33 DEB",
        "group": "iridium-33-debris",
        "lat": 7.083983033040918,
        "lon": -147.46114341156675,
        "alt_km": 718.031311937887,
        "timestamp": "2025-12-21T22:41:41.844535+00:00",
        "meta_object_name": "IRIDIUM 33 DEB",
        "meta_object_id": "1997-051KM",
        "meta_epoch": "2025-12-21T02:14:02.861088",
        "meta_mean_motion": 14.55122739,
        "meta_eccentricity": 0.00098763,
        "meta_inclination": 86.3773,
        "meta_ra_of_asc_node": 33.3605,
        "meta_arg_of_pericenter": 1.7251,
        "meta_mean_anomaly": 27.9675,
        "meta_ephemeris_type": 0,
        "meta_classification_type": "U",
        "meta_norad_cat_id": 34690,
        "meta_element_set_no": 999,
        "meta_rev_at_epoch": 88216,
        "meta_bstar": 0.00028932758,
        "meta_mean_motion_dot": 1.27e-05,
        "meta_mean_motion_ddot": 0,
        "tle_line1": "1 34690U 97051KM  25355.09308867  .00001270  00000+0  28933-3 0  9992",
        "tle_line2": "2 34690  86.3773  33.3605 0009876   1.7251  27.9675 14.55122739882164"
      },
      "geometry": {
        "type": "Point",
        "coordinates": [
          -147.46114341156675,
          7.083983033040918
        ]
      }
    },
    {
      "type": "Feature",
      "properties": {
        "norad_id": 34693,
        "name": "IRIDIUM 33 DEB",
        "group": "iridium-33-debris",
        "lat": 32.93942870511697,
        "lon": 116.84403216378593,
        "alt_km": 476.6951463171072,
        "timestamp": "2025-12-21T22:41:41.844546+00:00",
        "meta_object_name": "IRIDIUM 33 DEB",
        "meta_object_id": "1997-051KQ",
        "meta_epoch": "2025-12-21T14:58:16.935168",
        "meta_mean_motion": 15.29927761,
        "meta_eccentricity": 0.00111824,
        "meta_inclination": 86.3053,
        "meta_ra_of_asc_node": 299.4039,
        "meta_arg_of_pericenter": 37.1578,
        "meta_mean_anomaly": 138.3014,
        "meta_ephemeris_type": 0,
        "meta_classification_type": "U",
        "meta_norad_cat_id": 34693,
        "meta_element_set_no": 999,
        "meta_rev_at_epoch": 89050,
        "meta_bstar": 0.0042681341,
        "meta_mean_motion_dot": 0.00125697,
        "meta_mean_motion_ddot": 0,
        "tle_line1": "1 34693U 97051KQ  25355.62380712  .00125697  00000+0  42681-2 0  9998",
        "tle_line2": "2 34693  86.3053 299.4039 0011182  37.1578 138.3014 15.29927761890503"
      },
      "geometry": {
        "type": "Point",
        "coordinates": [
          116.84403216378593,
          32.93942870511697
        ]
      }
    },
    {
      "type": "Feature",
      "properties": {
        "norad_id": 34696,
        "name": "IRIDIUM 33 DEB",
        "group": "iridium-33-debris",
        "lat": -70.13782039576154,
        "lon": 12.58611670198797,
        "alt_km": 729.2277805026988,
        "timestamp": "2025-12-21T22:41:41.844556+00:00",
        "meta_object_name": "IRIDIUM 33 DEB",
        "meta_object_id": "1997-051KT",
        "meta_epoch": "2025-12-21T13:45:49.664736",
        "meta_mean_motion": 14.65474672,
        "meta_eccentricity": 0.00738227,
        "meta_inclination": 86.1828,
        "meta_ra_of_asc_node": 23.41,
        "meta_arg_of_pericenter": 137.7678,
        "meta_mean_anomaly": 349.4039,
        "meta_ephemeris_type": 0,
        "meta_classification_type": "U",
        "meta_norad_cat_id": 34696,
        "meta_element_set_no": 999,
        "meta_rev_at_epoch": 86802,
        "meta_bstar": 0.0032005825,
        "meta_mean_motion_dot": 0.00018092,
        "meta_mean_motion_ddot": 0,
        "tle_line1": "1 34696U 97051KT  25355.57349149  .00018092  00000+0  32006-2 0  9994",
        "tle_line2": "2 34696  86.1828  23.4100 0073822 137.7678 349.4039 14.65474672868026"
      },
      "geometry": {
        "type": "Point",
        "coordinates": [
          12.58611670198797,
          -70.13782039576154
        ]
      }
    }
  ]
}